[{"OBJECT_NAME":"STARLINK-31340","OBJECT_ID":"2024-044U","EPOCH":"2026-03-09T04:05:32.623872","MEAN_MOTION":15.27572437,"ECCENTRICITY":9.712e-5,"INCLINATION":43.0023,"RA_OF_ASC_NODE":70.4062,"ARG_OF_PERICENTER":214.2306,"MEAN_ANOMALY":145.8483,"EPHEMERIS_TYPE":0,"CLASSIFICATION_TYPE":"U","NORAD_CAT_ID":59170,"ELEMENT_SET_NO":999,"REV_AT_EPOCH":11394,"BSTAR":-1.8164612e-5,"MEAN_MOTION_DOT":-7.62e-6,"MEAN_MOTION_DDOT":0},{"OBJECT_NAME":"COSMOS 2251 DEB","OBJECT_ID":"1993-036RB","EPOCH":"2026-03-09T01:08:04.800192","MEAN_MOTION":15.30699894,"ECCENTRICITY":0.00252965,"INCLINATION":73.7308,"RA_OF_ASC_NODE":76.2904,"ARG_OF_PERICENTER":263.9966,"MEAN_ANOMALY":95.8352,"EPHEMERIS_TYPE":0,"CLASSIFICATION_TYPE":"U","NORAD_CAT_ID":34410,"ELEMENT_SET_NO":999,"REV_AT_EPOCH":91089,"BSTAR":0.003018315,"MEAN_MOTION_DOT":0.00091531,"MEAN_MOTION_DDOT":0}]
